[{"OBJECT_NAME":"TYVAK-0130","OBJECT_ID":"2021-041BF","EPOCH":"2026-03-09T11:37:42.710304","MEAN_MOTION":15.26049141,"ECCENTRICITY":0.0008953,"INCLINATION":52.9967,"RA_OF_ASC_NODE":128.603,"ARG_OF_PERICENTER":215.1647,"MEAN_ANOMALY":144.876,"EPHEMERIS_TYPE":0,"CLASSIFICATION_TYPE":"U","NORAD_CAT_ID":48606,"ELEMENT_SET_NO":999,"REV_AT_EPOCH":26515,"BSTAR":0.0003519806,"MEAN_MOTION_DOT":8.857e-5,"MEAN_MOTION_DDOT":0},{"OBJECT_NAME":"STARLINK-31965","OBJECT_ID":"2024-100D","EPOCH":"2026-03-09T05:23:43.313568","MEAN_MOTION":15.27607133,"ECCENTRICITY":0.00018194,"INCLINATION":43.0016,"RA_OF_ASC_NODE":128.2074,"ARG_OF_PERICENTER":279.596,"MEAN_ANOMALY":80.4686,"EPHEMERIS_TYPE":0,"CLASSIFICATION_TYPE":"U","NORAD_CAT_ID":59888,"ELEMENT_SET_NO":999,"REV_AT_EPOCH":10098,"BSTAR":0.00078938859,"MEAN_MOTION_DOT":0.00021542,"MEAN_MOTION_DDOT":0}]
