TYVAK-0130              
1 48606U 21041BF  26068.48452211  .00008857  00000+0  35198-3 0  9997
2 48606  52.9967 128.6030 0008953 215.1647 144.8760 15.26049141265157
STARLINK-31965          
1 59888U 24100D   26068.22480687  .00021542  00000+0  78939-3 0  9996
2 59888  43.0016 128.2074 0001819 279.5960  80.4686 15.27607133100980
